start=new Date('2022-05-17T00:00:00.000Z').valueOf();
sats=[{"APOAPSIS":"548.602","TLE_LINE1":"1 47878U 21021U   22136.73826285  .00002120  00000-0  16123-3 0  9996","MEAN_ELEMENT_THEORY":"SGP4","FILE":"3449020","EPHEMERIS_TYPE":"0","MEAN_MOTION_DOT":"0.00002120","TIME_SYSTEM":"UTC","EPOCH":"2022-05-16T17:43:05.910240","MEAN_MOTION_DDOT":"0.0000000000000","ARG_OF_PERICENTER":"45.6306","MEAN_MOTION":"15.06393402","SEMIMAJOR_AXIS":"6925.369","PERIOD":"95.593","ECCENTRICITY":"0.00019760","GP_ID":"203710271","LAUNCH_DATE":"2021-03-14","INCLINATION":"53.0557","NORAD_CAT_ID":"47878","CENTER_NAME":"EARTH","DECAY_DATE":null,"MEAN_ANOMALY":"314.4844","REV_AT_EPOCH":"6576","PERIAPSIS":"545.865","COUNTRY_CODE":"US","OBJECT_TYPE":"PAYLOAD","ELEMENT_SET_NO":"999","BSTAR":"0.00016123000000","CLASSIFICATION_TYPE":"U","RCS_SIZE":"LARGE","OBJECT_ID":"2021-021U","REF_FRAME":"TEME","OBJECT_NAME":"STARLINK-2335","TLE_LINE2":"2 47878  53.0557  44.8269 0001976  45.6306 314.4844 15.06393402 65766","SITE":"AFETR","RA_OF_ASC_NODE":"44.8269"},{"COUNTRY_CODE":"US","OBJECT_TYPE":"PAYLOAD","PERIAPSIS":"545.757","REV_AT_EPOCH":"6612","CLASSIFICATION_TYPE":"U","BSTAR":"0.00021567000000","ELEMENT_SET_NO":"999","OBJECT_NAME":"STARLINK-2336","REF_FRAME":"TEME","OBJECT_ID":"2021-021V","RCS_SIZE":"LARGE","RA_OF_ASC_NODE":"62.2304","SITE":"AFETR","TLE_LINE2":"2 47879  53.0558  62.2304 0002075  46.9544 313.1618 15.06406504 66125","NORAD_CAT_ID":"47879","GP_ID":"203697827","LAUNCH_DATE":"2021-03-14","INCLINATION":"53.0558","CENTER_NAME":"EARTH","MEAN_ANOMALY":"313.1618","DECAY_DATE":null,"EPOCH":"2022-05-16T04:54:08.017344","TIME_SYSTEM":"UTC","MEAN_MOTION_DOT":"0.00002933","ARG_OF_PERICENTER":"46.9544","MEAN_MOTION_DDOT":"0.0000000000000","PERIOD":"95.592","ECCENTRICITY":"0.00020750","SEMIMAJOR_AXIS":"6925.329","MEAN_MOTION":"15.06406504","TLE_LINE1":"1 47879U 21021V   22136.20425946  .00002933  00000-0  21567-3 0  9998","APOAPSIS":"548.631","FILE":"3448591","EPHEMERIS_TYPE":"0","MEAN_ELEMENT_THEORY":"SGP4"},{"CLASSIFICATION_TYPE":"U","BSTAR":"0.00014538000000","ELEMENT_SET_NO":"999","COUNTRY_CODE":"US","PERIAPSIS":"545.594","OBJECT_TYPE":"PAYLOAD","REV_AT_EPOCH":"6558","RA_OF_ASC_NODE":"55.8499","TLE_LINE2":"2 47880  53.0589  55.8499 0002337  44.8546 315.2632 15.06400308 65588","SITE":"AFETR","OBJECT_NAME":"STARLINK-2337","REF_FRAME":"TEME","OBJECT_ID":"2021-021W","RCS_SIZE":"LARGE","CENTER_NAME":"EARTH","NORAD_CAT_ID":"47880","INCLINATION":"53.0589","GP_ID":"203710305","LAUNCH_DATE":"2021-03-14","MEAN_ANOMALY":"315.2632","DECAY_DATE":null,"MEAN_MOTION_DDOT":"0.0000000000000","ARG_OF_PERICENTER":"44.8546","TIME_SYSTEM":"UTC","EPOCH":"2022-05-16T12:12:41.197824","MEAN_MOTION_DOT":"0.00001884","ECCENTRICITY":"0.00023370","PERIOD":"95.592","SEMIMAJOR_AXIS":"6925.348","MEAN_MOTION":"15.06400308","MEAN_ELEMENT_THEORY":"SGP4","FILE":"3448990","EPHEMERIS_TYPE":"0","TLE_LINE1":"1 47880U 21021W   22136.50881016  .00001884  00000-0  14538-3 0  9991","APOAPSIS":"548.831"},{"TIME_SYSTEM":"UTC","EPOCH":"2022-05-16T11:14:17.856672","MEAN_MOTION_DOT":"0.00002091","MEAN_MOTION_DDOT":"0.0000000000000","ARG_OF_PERICENTER":"58.9251","SEMIMAJOR_AXIS":"6925.360","PERIOD":"95.592","ECCENTRICITY":"0.00013980","MEAN_MOTION":"15.06396387","APOAPSIS":"548.193","TLE_LINE1":"1 47881U 21021X   22136.46826223  .00002091  00000-0  15926-3 0  9999","FILE":"3448591","EPHEMERIS_TYPE":"0","MEAN_ELEMENT_THEORY":"SGP4","COUNTRY_CODE":"US","PERIAPSIS":"546.256","OBJECT_TYPE":"PAYLOAD","REV_AT_EPOCH":"6602","CLASSIFICATION_TYPE":"U","ELEMENT_SET_NO":"999","BSTAR":"0.00015926000000","OBJECT_NAME":"STARLINK-2339","RCS_SIZE":"LARGE","REF_FRAME":"TEME","OBJECT_ID":"2021-021X","SITE":"AFETR","TLE_LINE2":"2 47881  53.0564  56.0478 0001398  58.9251 301.1875 15.06396387 66021","RA_OF_ASC_NODE":"56.0478","NORAD_CAT_ID":"47881","GP_ID":"203696826","INCLINATION":"53.0564","LAUNCH_DATE":"2021-03-14","CENTER_NAME":"EARTH","DECAY_DATE":null,"MEAN_ANOMALY":"301.1875"},{"MEAN_ANOMALY":"296.2384","DECAY_DATE":null,"CENTER_NAME":"EARTH","GP_ID":"203697076","INCLINATION":"53.0572","LAUNCH_DATE":"2021-03-14","NORAD_CAT_ID":"47882","RA_OF_ASC_NODE":"46.1477","SITE":"AFETR","TLE_LINE2":"2 47882  53.0572  46.1477 0001444  63.8753 296.2384 15.06389795 66365","OBJECT_ID":"2021-021Y","REF_FRAME":"TEME","RCS_SIZE":"LARGE","OBJECT_NAME":"STARLINK-2340","ELEMENT_SET_NO":"999","BSTAR":"0.00016588000000","CLASSIFICATION_TYPE":"U","REV_AT_EPOCH":"6636","COUNTRY_CODE":"US","OBJECT_TYPE":"PAYLOAD","PERIAPSIS":"546.245","EPHEMERIS_TYPE":"0","FILE":"3448591","MEAN_ELEMENT_THEORY":"SGP4","TLE_LINE1":"1 47882U 21021Y   22136.44338873  .00002189  00000-0  16588-3 0  9990","APOAPSIS":"548.245","MEAN_MOTION":"15.06389795","ECCENTRICITY":"0.00014440","PERIOD":"95.593","SEMIMAJOR_AXIS":"6925.380","MEAN_MOTION_DDOT":"0.0000000000000","ARG_OF_PERICENTER":"63.8753","MEAN_MOTION_DOT":"0.00002189","TIME_SYSTEM":"UTC","EPOCH":"2022-05-16T10:38:28.786272"},{"MEAN_MOTION_DDOT":"0.0000000000000","ARG_OF_PERICENTER":"58.8877","MEAN_MOTION_DOT":"-0.00000091","TIME_SYSTEM":"UTC","EPOCH":"2022-05-16T11:33:32.972832","MEAN_MOTION":"15.06389166","SEMIMAJOR_AXIS":"6925.382","ECCENTRICITY":"0.00016060","PERIOD":"95.593","EPHEMERIS_TYPE":"0","FILE":"3448760","MEAN_ELEMENT_THEORY":"SGP4","APOAPSIS":"548.359","TLE_LINE1":"1 47883U 21021Z   22136.48163163 -.00000091  00000-0  12817-4 0  9996","ELEMENT_SET_NO":"999","BSTAR":"0.00001281700000","CLASSIFICATION_TYPE":"U","REV_AT_EPOCH":"6565","COUNTRY_CODE":"US","OBJECT_TYPE":"PAYLOAD","PERIAPSIS":"546.135","TLE_LINE2":"2 47883  53.0559  50.9735 0001606  58.8877 301.2269 15.06389166 65654","SITE":"AFETR","RA_OF_ASC_NODE":"50.9735","RCS_SIZE":"LARGE","REF_FRAME":"TEME","OBJECT_ID":"2021-021Z","OBJECT_NAME":"STARLINK-2342","CENTER_NAME":"EARTH","GP_ID":"203704342","LAUNCH_DATE":"2021-03-14","INCLINATION":"53.0559","NORAD_CAT_ID":"47883","DECAY_DATE":null,"MEAN_ANOMALY":"301.2269"},{"MEAN_ELEMENT_THEORY":"SGP4","FILE":"3448990","EPHEMERIS_TYPE":"0","TLE_LINE1":"1 47884U 21021AA  22136.72996118 -.00001293  00000-0 -67911-4 0  9999","APOAPSIS":"548.582","MEAN_MOTION_DDOT":"0.0000000000000","ARG_OF_PERICENTER":"51.6899","MEAN_MOTION_DOT":"-0.00001293","TIME_SYSTEM":"UTC","EPOCH":"2022-05-16T17:31:08.645952","MEAN_MOTION":"15.06392140","ECCENTRICITY":"0.00019410","PERIOD":"95.593","SEMIMAJOR_AXIS":"6925.373","CENTER_NAME":"EARTH","GP_ID":"203710304","LAUNCH_DATE":"2021-03-14","INCLINATION":"53.0556","NORAD_CAT_ID":"47884","MEAN_ANOMALY":"308.4264","DECAY_DATE":null,"BSTAR":"-0.00006791100000","ELEMENT_SET_NO":"999","CLASSIFICATION_TYPE":"U","REV_AT_EPOCH":"6561","COUNTRY_CODE":"US","OBJECT_TYPE":"PAYLOAD","PERIAPSIS":"545.893","RA_OF_ASC_NODE":"54.8685","SITE":"AFETR","TLE_LINE2":"2 47884  53.0556  54.8685 0001941  51.6899 308.4264 15.06392140 65612","OBJECT_ID":"2021-021AA","REF_FRAME":"TEME","RCS_SIZE":"LARGE","OBJECT_NAME":"STARLINK-2343"},{"FILE":"3448990","MEAN_ELEMENT_THEORY":"SGP4","EPHEMERIS_TYPE":"0","APOAPSIS":"548.430","TLE_LINE1":"1 47885U 21021AB  22136.79032148  .00001308  00000-0  10666-3 0  9990","SEMIMAJOR_AXIS":"6925.333","PERIOD":"95.592","ECCENTRICITY":"0.00017800","MEAN_MOTION":"15.06405211","MEAN_MOTION_DDOT":"0.0000000000000","ARG_OF_PERICENTER":"65.8470","EPOCH":"2022-05-16T18:58:03.775872","TIME_SYSTEM":"UTC","MEAN_MOTION_DOT":"0.00001308","DECAY_DATE":null,"MEAN_ANOMALY":"294.2705","CENTER_NAME":"EARTH","NORAD_CAT_ID":"47885","LAUNCH_DATE":"2021-03-14","GP_ID":"203710808","INCLINATION":"53.0571","SITE":"AFETR","TLE_LINE2":"2 47885  53.0571  59.5856 0001780  65.8470 294.2705 15.06405211 65554","RA_OF_ASC_NODE":"59.5856","OBJECT_NAME":"STARLINK-2344","RCS_SIZE":"LARGE","OBJECT_ID":"2021-021AB","REF_FRAME":"TEME","CLASSIFICATION_TYPE":"U","ELEMENT_SET_NO":"999","BSTAR":"0.00010666000000","PERIAPSIS":"545.965","COUNTRY_CODE":"US","OBJECT_TYPE":"PAYLOAD","REV_AT_EPOCH":"6555"},{"REV_AT_EPOCH":"6569","COUNTRY_CODE":"US","OBJECT_TYPE":"PAYLOAD","PERIAPSIS":"545.998","BSTAR":"0.00002672000000","ELEMENT_SET_NO":"999","CLASSIFICATION_TYPE":"U","RCS_SIZE":"LARGE","OBJECT_ID":"2021-021AC","REF_FRAME":"TEME","OBJECT_NAME":"STARLINK-2345","TLE_LINE2":"2 47886  53.0551  49.5983 0001727  33.7477 326.3621 15.06406468 65699","SITE":"AFETR","RA_OF_ASC_NODE":"49.5983","GP_ID":"203703609","LAUNCH_DATE":"2021-03-14","INCLINATION":"53.0551","NORAD_CAT_ID":"47886","CENTER_NAME":"EARTH","DECAY_DATE":null,"MEAN_ANOMALY":"326.3621","MEAN_MOTION_DOT":"0.00000116","EPOCH":"2022-05-16T18:58:01.183872","TIME_SYSTEM":"UTC","MEAN_MOTION_DDOT":"0.0000000000000","ARG_OF_PERICENTER":"33.7477","MEAN_MOTION":"15.06406468","SEMIMAJOR_AXIS":"6925.329","ECCENTRICITY":"0.00017270","PERIOD":"95.592","APOAPSIS":"548.390","TLE_LINE1":"1 47886U 21021AC  22136.79029148  .00000116  00000-0  26720-4 0  9992","FILE":"3448722","MEAN_ELEMENT_THEORY":"SGP4","EPHEMERIS_TYPE":"0"},{"OBJECT_NAME":"STARLINK-2346","REF_FRAME":"TEME","OBJECT_ID":"2021-021AD","RCS_SIZE":"LARGE","RA_OF_ASC_NODE":"55.9596","SITE":"AFETR","TLE_LINE2":"2 47887  53.0549  55.9596 0001603  62.0223 298.0929 15.06392129 65587","COUNTRY_CODE":"US","OBJECT_TYPE":"PAYLOAD","PERIAPSIS":"546.128","REV_AT_EPOCH":"6558","CLASSIFICATION_TYPE":"U","BSTAR":"-0.00003230900000","ELEMENT_SET_NO":"999","MEAN_ANOMALY":"298.0929","DECAY_DATE":null,"NORAD_CAT_ID":"47887","LAUNCH_DATE":"2021-03-14","GP_ID":"203710309","INCLINATION":"53.0549","CENTER_NAME":"EARTH","ECCENTRICITY":"0.00016030","PERIOD":"95.593","SEMIMAJOR_AXIS":"6925.373","MEAN_MOTION":"15.06392129","TIME_SYSTEM":"UTC","EPOCH":"2022-05-16T11:35:31.867008","MEAN_MOTION_DOT":"-0.00000763","ARG_OF_PERICENTER":"62.0223","MEAN_MOTION_DDOT":"0.0000000000000","TLE_LINE1":"1 47887U 21021AD  22136.48300772 -.00000763  00000-0 -32309-4 0  9994","APOAPSIS":"548.348","FILE":"3448990","MEAN_ELEMENT_THEORY":"SGP4","EPHEMERIS_TYPE":"0"}];
